NORAD_CAT_ID,OBJECT_NAME,OBJECT_TYPE,EPOCH,MEAN_MOTION,ECCENTRICITY,INCLINATION,RA_OF_ASC_NODE,ARG_OF_PERICENTER,MEAN_ANOMALY,BSTAR,MEAN_MOTION_DOT,MEAN_MOTION_DDOT,TLE_LINE0,TLE_LINE1,TLE_LINE2,SEMIMAJOR_AXIS,PERIOD,APOGEE,PERIGEE,DECAYED
56770.0,STARLINK-6342,PAYLOAD,2023-12-15 04:45:00,14.98325482,0.0002219,69.9995,260.6285,261.0363,99.0545,0.00016234,1.844e-05,0.0,0 STARLINK-6342,1 56770U 23078D   23349.19792429  .00001844  00000-0  16234-3 0  9995,2 56770  69.9995 260.6285 0002219 261.0363  99.0545 14.98325482 30032,6950.207,96.107,573.614,570.53,0.0
56770.0,STARLINK-6342,PAYLOAD,2023-12-15 22:22:29,14.98328035,0.0002021,70.0001,258.7793,242.5188,117.5766,-5.5497e-05,-7.55e-06,0.0,0 STARLINK-6342,1 56770U 23078D   23349.93229047 -.00000755  00000-0 -55497-4 0  9995,2 56770  70.0001 258.7793 0002021 242.5188 117.5766 14.98328035 30145,6950.199,96.107,573.469,570.659,0.0
56770.0,STARLINK-6342,PAYLOAD,2023-12-16 03:10:54,14.98325632,0.0002065,69.9998,258.2733,252.5921,107.5012,-7.3331e-05,-9.68e-06,0.0,0 STARLINK-6342,1 56770U 23078D   23350.13257302 -.00000968  00000-0 -73331-4 0  9997,2 56770  69.9998 258.2733 0002065 252.5921 107.5012 14.98325632 30435,6950.206,96.107,573.507,570.636,0.0
56770.0,STARLINK-6342,PAYLOAD,2023-12-16 19:12:14,14.9833109,0.0002269,69.9987,256.5873,256.1657,103.925,-1.0113e-05,-2.14e-06,0.0,0 STARLINK-6342,1 56770U 23078D   23350.80016790 -.00000214  00000-0 -10113-4 0  9998,2 56770  69.9987 256.5873 0002269 256.1657 103.9250 14.98331090 30531,6950.19,96.107,573.632,570.478,0.0
56770.0,STARLINK-6342,PAYLOAD,2023-12-16 22:24:30,14.98331886,0.0002366,69.9986,256.2507,266.148,93.9409,6.6286e-07,-8.5e-07,0.0,0 STARLINK-6342,1 56770U 23078D   23350.93368717 -.00000085  00000-0  66286-6 0  9990,2 56770  69.9986 256.2507 0002366 266.1480  93.9409 14.98331886 30294,6950.187,96.107,573.696,570.408,0.0
56770.0,STARLINK-6342,PAYLOAD,2023-12-17 03:12:54,14.9833462,0.0002242,69.9989,255.7462,257.7787,102.3121,2.0474e-05,1.51e-06,0.0,0 STARLINK-6342,1 56770U 23078D   23351.13396437  .00000151  00000-0  20474-4 0  9993,2 56770  69.9989 255.7462 0002242 257.7787 102.3121 14.98334620 30329,6950.179,96.107,573.602,570.485,0.0
56770.0,STARLINK-6342,PAYLOAD,2023-12-17 19:14:15,14.98330904,0.0002268,69.9989,254.0632,262.8513,97.2388,8.9615e-05,9.76e-06,0.0,0 STARLINK-6342,1 56770U 23078D   23351.80156420  .00000976  00000-0  89615-4 0  9990,2 56770  69.9989 254.0632 0002268 262.8513  97.2388 14.98330904 30689,6950.19,96.107,573.631,570.479,0.0
56770.0,STARLINK-6342,PAYLOAD,2023-12-17 22:26:31,14.98332651,0.0002073,69.9993,253.7265,245.7196,114.3747,0.00010742,1.189e-05,0.0,0 STARLINK-6342,1 56770U 23078D   23351.93508224  .00001189  00000-0  10742-3 0  9998,2 56770  69.9993 253.7265 0002073 245.7196 114.3747 14.98332651 30448,6950.185,96.107,573.49,570.609,0.0
56770.0,STARLINK-6342,PAYLOAD,2023-12-18 03:14:54,14.98336382,0.0002291,69.9996,253.2228,263.874,96.2158,0.00014697,1.661e-05,0.0,0 STARLINK-6342,1 56770U 23078D   23352.13535854  .00001661  00000-0  14697-3 0  9998,2 56770  69.9996 253.2228 0002291 263.8740  96.2158 14.98336382 30734,6950.173,96.107,573.63,570.446,0.0
56770.0,STARLINK-6342,PAYLOAD,2023-12-18 19:16:16,14.9832575,0.0001854,70.0023,251.546,258.8687,101.2264,-3.8124e-05,-5.48e-06,0.0,0 STARLINK-6342,1 56770U 23078D   23352.80297140 -.00000548  00000-0 -38124-4 0  9992,2 56770  70.0023 251.5460 0001854 258.8687 101.2264 14.98325750 30838,6950.206,96.107,573.36,570.782,0.0
56770.0,STARLINK-6342,PAYLOAD,2023-12-18 22:28:33,14.98319281,0.0001894,70.0,251.2025,243.8104,116.286,-0.00011267,-1.436e-05,0.0,0 STARLINK-6342,1 56770U 23078D   23352.93649633 -.00001436  00000-0 -11267-3 0  9999,2 56770  70.0000 251.2025 0001894 243.8104 116.2860 14.98319281 30592,6950.226,96.108,573.407,570.775,0.0
56770.0,STARLINK-6342,PAYLOAD,2023-12-19 03:16:57,14.98323764,0.0002323,69.9994,250.6988,265.7335,94.3558,-9.6964e-05,-1.249e-05,0.0,0 STARLINK-6342,1 56770U 23078D   23353.13677445 -.00001249  00000-0 -96964-4 0  9994,2 56770  69.9994 250.6988 0002323 265.7335  94.3558 14.98323764 30624,6950.212,96.107,573.692,570.463,0.0
56770.0,STARLINK-6342,PAYLOAD,2023-12-19 19:18:17,14.98332504,0.0002127,69.9989,249.0134,251.6931,108.3997,-5.5353e-05,-7.53e-06,0.0,0 STARLINK-6342,1 56770U 23078D   23353.80436821 -.00000753  00000-0 -55353-4 0  9995,2 56770  69.9989 249.0134 0002127 251.6931 108.3997 14.98332504 30985,6950.185,96.107,573.528,570.572,0.0
56770.0,STARLINK-6342,PAYLOAD,2023-12-20 03:18:57,14.98334344,0.0002104,69.9991,248.1724,252.915,107.1778,-1.1506e-05,-2.3e-06,0.0,0 STARLINK-6342,1 56770U 23078D   23354.13816549 -.00000230  00000-0 -11506-4 0  9993,2 56770  69.9991 248.1724 0002104 252.9150 107.1778 14.98334344 30770,6950.179,96.107,573.507,570.582,0.0
56770.0,STARLINK-6342,PAYLOAD,2023-12-20 19:20:17,14.98327243,0.0002125,69.999,246.4877,255.1667,104.9257,0.00021465,2.469e-05,0.0,0 STARLINK-6342,1 56770U 23078D   23354.80576304  .00002469  00000-0  21465-3 0  9997,2 56770  69.9990 246.4877 0002125 255.1667 104.9257 14.98327243 31138,6950.201,96.107,573.543,570.589,0.0
56770.0,STARLINK-6342,PAYLOAD,2023-12-20 22:32:34,14.98337725,0.0001492,69.9991,246.15,259.4378,100.6613,2.2312e-05,1.73e-06,0.0,0 STARLINK-6342,1 56770U 23078D   23354.93928324  .00000173  00000-0  22312-4 0  9997,2 56770  69.9991 246.1500 0001492 259.4378 100.6613 14.98337725 30898,6950.169,96.107,573.071,570.997,0.0
56770.0,STARLINK-6342,PAYLOAD,2023-12-21 03:20:57,14.98366768,0.0001636,69.9994,245.6463,266.4775,93.6197,-0.00036235,-4.417e-05,0.0,0 STARLINK-6342,1 56770U 23078D   23355.13955179 -.00004417  00000-0 -36235-3 0  9993,2 56770  69.9994 245.6463 0001636 266.4775  93.6197 14.98366768 31182,6950.079,96.105,573.081,570.807,0.0
56770.0,STARLINK-6342,PAYLOAD,2023-12-21 22:34:35,14.98329215,0.0002033,69.9996,243.6282,255.9067,104.1866,-5.682e-06,-1.61e-06,0.0,0 STARLINK-6342,1 56770U 23078D   23355.94068759 -.00000161  00000-0 -56820-5 0  9997,2 56770  69.9996 243.6282 0002033 255.9067 104.1866 14.98329215 31042,6950.195,96.107,573.473,570.647,0.0
56770.0,STARLINK-6342,PAYLOAD,2023-12-22 01:46:51,14.98331291,0.0001978,69.9995,243.2908,252.2601,107.8342,2.1822e-05,1.68e-06,0.0,0 STARLINK-6342,1 56770U 23078D   23356.07420530  .00000168  00000-0  21822-4 0  9999,2 56770  69.9995 243.2908 0001978 252.2601 107.8342 14.98331291 31320,6950.189,96.107,573.429,570.679,0.0
56770.0,STARLINK-6342,PAYLOAD,2023-12-22 22:36:36,14.98330086,0.0002184,69.9987,241.1004,269.8339,90.257,-7.0853e-05,-9.38e-06,0.0,0 STARLINK-6342,1 56770U 23078D   23356.94208800 -.00000938  00000-0 -70853-4 0  9994,2 56770  69.9987 241.1004 0002184 269.8339  90.2570 14.98330086 31191,6950.193,96.107,573.576,570.54,0.0
56770.0,STARLINK-6342,PAYLOAD,2023-12-23 03:25:00,14.98335221,0.000227,69.9982,240.5932,278.5821,81.508,-1.3637e-05,-2.56e-06,0.0,0 STARLINK-6342,1 56770U 23078D   23357.14236297 -.00000256  00000-0 -13637-4 0  9998,2 56770  69.9982 240.5932 0002270 278.5821  81.5080 14.98335221 31485,6950.177,96.107,573.619,570.464,0.0
56770.0,STARLINK-6342,PAYLOAD,2023-12-23 19:26:21,14.98320138,0.0001958,70.0,238.915,231.1304,128.9681,-4.7517e-05,-6.6e-06,0.0,0 STARLINK-6342,1 56770U 23078D   23357.80997467 -.00000660  00000-0 -47517-4 0  9997,2 56770  70.0000 238.9150 0001958 231.1304 128.9681 14.98320138 31580,6950.223,96.108,573.449,570.728,0.0
56770.0,STARLINK-6342,PAYLOAD,2023-12-23 21:02:30,14.98317173,0.0001897,69.9997,238.7449,245.169,114.9272,-6.7119e-05,-8.93e-06,0.0,0 STARLINK-6342,1 56770U 23078D   23357.87673751 -.00000893  00000-0 -67119-4 0  9999,2 56770  69.9997 238.7449 0001897 245.1690 114.9272 14.98317173 31335,6950.233,96.108,573.416,570.779,0.0
56770.0,STARLINK-6342,PAYLOAD,2023-12-24 01:50:54,14.98312444,0.0001998,69.9992,238.239,257.888,102.2055,-0.00012645,-1.601e-05,0.0,0 STARLINK-6342,1 56770U 23078D   23358.07702444 -.00001601  00000-0 -12645-3 0  9995,2 56770  69.9992 238.2390 0001998 257.8880 102.2055 14.98312444 31620,6950.247,96.108,573.501,570.724,0.0
56770.0,STARLINK-6342,PAYLOAD,2023-12-24 19:28:23,14.98323104,0.0002642,69.9978,236.3857,276.7646,83.3212,4.0478e-05,3.9e-06,0.0,0 STARLINK-6342,1 56770U 23078D   23358.81137758  .00000390  00000-0  40478-4 0  9995,2 56770  69.9978 236.3857 0002642 276.7646  83.3212 14.98323104 31739,6950.214,96.107,573.915,570.243,0.0
56770.0,STARLINK-6342,PAYLOAD,2023-12-24 21:04:31,14.98326219,0.0002753,69.9976,236.2174,275.5196,84.5649,2.0957e-06,-6.8e-07,0.0,0 STARLINK-6342,1 56770U 23078D   23358.87813707 -.00000068  00000-0  20957-5 0  9990,2 56770  69.9976 236.2174 0002753 275.5196  84.5649 14.98326219 31487,6950.205,96.107,573.983,570.156,0.0
56770.0,STARLINK-6342,PAYLOAD,2023-12-25 01:52:54,14.98332697,0.0002336,69.9983,235.7123,266.1178,93.9714,9.9655e-05,1.096e-05,0.0,0 STARLINK-6342,1 56770U 23078D   23359.07841040  .00001096  00000-0  99655-4 0  9995,2 56770  69.9983 235.7123 0002336 266.1178  93.9714 14.98332697 31772,6950.185,96.107,573.673,570.426,0.0
56770.0,STARLINK-6342,PAYLOAD,2023-12-25 21:06:30,14.98334849,0.0002516,69.9981,233.6928,269.7984,90.2887,0.00027972,3.246e-05,0.0,0 STARLINK-6342,1 56770U 23078D   23359.87952359  .00003246  00000-0  27972-3 0  9990,2 56770  69.9981 233.6928 0002516 269.7984  90.2887 14.98334849 31631,6950.178,96.107,573.792,570.294,0.0
56770.0,STARLINK-6342,PAYLOAD,2023-12-26 01:54:54,14.9834012,0.0002459,69.9982,233.1884,268.0005,92.0872,0.00033264,3.879e-05,0.0,0 STARLINK-6342,1 56770U 23078D   23360.07979874  .00003879  00000-0  33264-3 0  9998,2 56770  69.9982 233.1884 0002459 268.0005  92.0872 14.98340120 31925,6950.162,96.106,573.736,570.318,0.0
56770.0,STARLINK-6342,PAYLOAD,2023-12-26 19:32:24,14.98334458,0.0002164,69.9989,231.3369,265.0474,95.0438,1.805e-05,1.22e-06,0.0,0 STARLINK-6342,1 56770U 23078D   23360.81416830  .00000122  00000-0  18050-4 0  9993,2 56770  69.9989 231.3369 0002164 265.0474  95.0438 14.98334458 32031,6950.179,96.107,573.548,570.54,0.0
